CCSDS_OMM_VERS = 2.0
CREATION_DATE  = 
ORIGINATOR     = 

OBJECT_NAME    = ATLAS CENTAUR R/B
OBJECT_ID      = 1972-065B
CENTER_NAME    = EARTH
REF_FRAME      = TEME
TIME_SYSTEM    = UTC
MEAN_ELEMENT_THEORY = SGP/SGP4

EPOCH          = 2026-02-09T07:33:18.912672
MEAN_MOTION    = 14.77603317
ECCENTRICITY   = .0033196
INCLINATION    = 35.0012
RA_OF_ASC_NODE = 112.0279
ARG_OF_PERICENTER = 132.0293
MEAN_ANOMALY   = 228.3241

EPHEMERIS_TYPE = 0
CLASSIFICATION_TYPE = U
NORAD_CAT_ID   = 6155
ELEMENT_SET_NO = 999
REV_AT_EPOCH   = 83706
BSTAR          = .21723E-3
MEAN_MOTION_DOT = .1569E-4
MEAN_MOTION_DDOT = 0

CCSDS_OMM_VERS = 2.0
CREATION_DATE  = 
ORIGINATOR     = 

OBJECT_NAME    = SL-8 R/B
OBJECT_ID      = 1975-112B
CENTER_NAME    = EARTH
REF_FRAME      = TEME
TIME_SYSTEM    = UTC
MEAN_ELEMENT_THEORY = SGP/SGP4

EPOCH          = 2026-02-09T11:17:32.702496
MEAN_MOTION    = 14.38189507
ECCENTRICITY   = .0015373
INCLINATION    = 74.0591
RA_OF_ASC_NODE = 70.8261
ARG_OF_PERICENTER = 174.0587
MEAN_ANOMALY   = 186.0752

EPHEMERIS_TYPE = 0
CLASSIFICATION_TYPE = U
NORAD_CAT_ID   = 8459
ELEMENT_SET_NO = 999
REV_AT_EPOCH   = 62781
BSTAR          = .78755E-4
MEAN_MOTION_DOT = .213E-5
MEAN_MOTION_DDOT = 0

CCSDS_OMM_VERS = 2.0
CREATION_DATE  = 
ORIGINATOR     = 

OBJECT_NAME    = SL-3 R/B
OBJECT_ID      = 1977-057B
CENTER_NAME    = EARTH
REF_FRAME      = TEME
TIME_SYSTEM    = UTC
MEAN_ELEMENT_THEORY = SGP/SGP4

EPOCH          = 2026-02-09T11:33:40.901760
MEAN_MOTION    = 15.44671174
ECCENTRICITY   = .0007968
INCLINATION    = 97.5734
RA_OF_ASC_NODE = 211.1862
ARG_OF_PERICENTER = 32.9331
MEAN_ANOMALY   = 327.2412

EPHEMERIS_TYPE = 0
CLASSIFICATION_TYPE = U
NORAD_CAT_ID   = 10114
ELEMENT_SET_NO = 999
REV_AT_EPOCH   = 66397
BSTAR          = .3E-3
MEAN_MOTION_DOT = .13916E-3
MEAN_MOTION_DDOT = 0

CCSDS_OMM_VERS = 2.0
CREATION_DATE  = 
ORIGINATOR     = 

OBJECT_NAME    = SEASAT 1
OBJECT_ID      = 1978-064A
CENTER_NAME    = EARTH
REF_FRAME      = TEME
TIME_SYSTEM    = UTC
MEAN_ELEMENT_THEORY = SGP/SGP4

EPOCH          = 2026-02-09T11:32:50.815680
MEAN_MOTION    = 14.46137456
ECCENTRICITY   = .0001625
INCLINATION    = 108.0162
RA_OF_ASC_NODE = 66.3003
ARG_OF_PERICENTER = 291.6890
MEAN_ANOMALY   = 68.4083

EPHEMERIS_TYPE = 0
CLASSIFICATION_TYPE = U
NORAD_CAT_ID   = 10967
ELEMENT_SET_NO = 999
REV_AT_EPOCH   = 50243
BSTAR          = .13995E-3
MEAN_MOTION_DOT = .363E-5
MEAN_MOTION_DDOT = 0

CCSDS_OMM_VERS = 2.0
CREATION_DATE  = 
ORIGINATOR     = 

OBJECT_NAME    = SL-14 R/B
OBJECT_ID      = 1979-011B
CENTER_NAME    = EARTH
REF_FRAME      = TEME
TIME_SYSTEM    = UTC
MEAN_ELEMENT_THEORY = SGP/SGP4

EPOCH          = 2026-02-09T06:38:18.424896
MEAN_MOTION    = 14.91873299
ECCENTRICITY   = .0016873
INCLINATION    = 82.5252
RA_OF_ASC_NODE = 123.5305
ARG_OF_PERICENTER = 148.0085
MEAN_ANOMALY   = 212.2163

EPHEMERIS_TYPE = 0
CLASSIFICATION_TYPE = U
NORAD_CAT_ID   = 11267
ELEMENT_SET_NO = 999
REV_AT_EPOCH   = 52454
BSTAR          = .74048E-4
MEAN_MOTION_DOT = .775E-5
MEAN_MOTION_DDOT = 0

CCSDS_OMM_VERS = 2.0
CREATION_DATE  = 
ORIGINATOR     = 

OBJECT_NAME    = SL-8 R/B
OBJECT_ID      = 1979-089B
CENTER_NAME    = EARTH
REF_FRAME      = TEME
TIME_SYSTEM    = UTC
MEAN_ELEMENT_THEORY = SGP/SGP4

EPOCH          = 2026-02-09T10:43:15.704256
MEAN_MOTION    = 14.42333128
ECCENTRICITY   = .0016601
INCLINATION    = 74.0698
RA_OF_ASC_NODE = 143.3229
ARG_OF_PERICENTER = 319.4774
MEAN_ANOMALY   = 40.5145

EPHEMERIS_TYPE = 0
CLASSIFICATION_TYPE = U
NORAD_CAT_ID   = 11574
ELEMENT_SET_NO = 999
REV_AT_EPOCH   = 43203
BSTAR          = .11308E-3
MEAN_MOTION_DOT = .348E-5
MEAN_MOTION_DDOT = 0

CCSDS_OMM_VERS = 2.0
CREATION_DATE  = 
ORIGINATOR     = 

OBJECT_NAME    = SL-14 R/B
OBJECT_ID      = 1980-005B
CENTER_NAME    = EARTH
REF_FRAME      = TEME
TIME_SYSTEM    = UTC
MEAN_ELEMENT_THEORY = SGP/SGP4

EPOCH          = 2026-02-09T06:30:10.985472
MEAN_MOTION    = 14.90892686
ECCENTRICITY   = .0014129
INCLINATION    = 82.5175
RA_OF_ASC_NODE = 334.1850
ARG_OF_PERICENTER = 257.3846
MEAN_ANOMALY   = 102.5793

EPHEMERIS_TYPE = 0
CLASSIFICATION_TYPE = U
NORAD_CAT_ID   = 11672
ELEMENT_SET_NO = 999
REV_AT_EPOCH   = 47225
BSTAR          = .85246E-4
MEAN_MOTION_DOT = .866E-5
MEAN_MOTION_DDOT = 0

CCSDS_OMM_VERS = 2.0
CREATION_DATE  = 
ORIGINATOR     = 

OBJECT_NAME    = SL-8 R/B
OBJECT_ID      = 1981-003B
CENTER_NAME    = EARTH
REF_FRAME      = TEME
TIME_SYSTEM    = UTC
MEAN_ELEMENT_THEORY = SGP/SGP4

EPOCH          = 2026-02-09T05:57:26.551008
MEAN_MOTION    = 15.09943655
ECCENTRICITY   = .0263215
INCLINATION    = 82.9390
RA_OF_ASC_NODE = 316.3003
ARG_OF_PERICENTER = 277.9687
MEAN_ANOMALY   = 79.1751

EPHEMERIS_TYPE = 0
CLASSIFICATION_TYPE = U
NORAD_CAT_ID   = 12139
ELEMENT_SET_NO = 999
REV_AT_EPOCH   = 31038
BSTAR          = .51805E-3
MEAN_MOTION_DOT = .19549E-3
MEAN_MOTION_DDOT = 0

CCSDS_OMM_VERS = 2.0
CREATION_DATE  = 
ORIGINATOR     = 

OBJECT_NAME    = SL-3 R/B
OBJECT_ID      = 1981-046B
CENTER_NAME    = EARTH
REF_FRAME      = TEME
TIME_SYSTEM    = UTC
MEAN_ELEMENT_THEORY = SGP/SGP4

EPOCH          = 2026-02-09T10:03:48.963744
MEAN_MOTION    = 15.41199338
ECCENTRICITY   = .0020721
INCLINATION    = 81.2340
RA_OF_ASC_NODE = 323.6633
ARG_OF_PERICENTER = 114.7831
MEAN_ANOMALY   = 245.5571

EPHEMERIS_TYPE = 0
CLASSIFICATION_TYPE = U
NORAD_CAT_ID   = 12465
ELEMENT_SET_NO = 999
REV_AT_EPOCH   = 43407
BSTAR          = .33794E-3
MEAN_MOTION_DOT = .1417E-3
MEAN_MOTION_DDOT = 0

CCSDS_OMM_VERS = 2.0
CREATION_DATE  = 
ORIGINATOR     = 

OBJECT_NAME    = SL-3 R/B
OBJECT_ID      = 1981-103B
CENTER_NAME    = EARTH
REF_FRAME      = TEME
TIME_SYSTEM    = UTC
MEAN_ELEMENT_THEORY = SGP/SGP4

EPOCH          = 2026-02-09T11:42:12.114144
MEAN_MOTION    = 15.21033065
ECCENTRICITY   = .0013706
INCLINATION    = 81.1565
RA_OF_ASC_NODE = 246.5124
ARG_OF_PERICENTER = 24.1053
MEAN_ANOMALY   = 336.0816

EPHEMERIS_TYPE = 0
CLASSIFICATION_TYPE = U
NORAD_CAT_ID   = 12904
ELEMENT_SET_NO = 999
REV_AT_EPOCH   = 96894
BSTAR          = .24347E-3
MEAN_MOTION_DOT = .5441E-4
MEAN_MOTION_DDOT = 0

CCSDS_OMM_VERS = 2.0
CREATION_DATE  = 
ORIGINATOR     = 

OBJECT_NAME    = SL-3 R/B
OBJECT_ID      = 1982-013B
CENTER_NAME    = EARTH
REF_FRAME      = TEME
TIME_SYSTEM    = UTC
MEAN_ELEMENT_THEORY = SGP/SGP4

EPOCH          = 2026-02-09T12:11:16.992384
MEAN_MOTION    = 15.21700063
ECCENTRICITY   = .0021679
INCLINATION    = 81.1742
RA_OF_ASC_NODE = 193.7877
ARG_OF_PERICENTER = 275.2101
MEAN_ANOMALY   = 84.6656

EPHEMERIS_TYPE = 0
CLASSIFICATION_TYPE = U
NORAD_CAT_ID   = 13068
ELEMENT_SET_NO = 999
REV_AT_EPOCH   = 40006
BSTAR          = .26579E-3
MEAN_MOTION_DOT = .6077E-4
MEAN_MOTION_DDOT = 0

CCSDS_OMM_VERS = 2.0
CREATION_DATE  = 
ORIGINATOR     = 

OBJECT_NAME    = SL-3 R/B
OBJECT_ID      = 1982-039B
CENTER_NAME    = EARTH
REF_FRAME      = TEME
TIME_SYSTEM    = UTC
MEAN_ELEMENT_THEORY = SGP/SGP4

EPOCH          = 2026-02-09T11:51:17.540928
MEAN_MOTION    = 15.09923705
ECCENTRICITY   = .0030082
INCLINATION    = 81.1611
RA_OF_ASC_NODE = 248.4617
ARG_OF_PERICENTER = 56.6773
MEAN_ANOMALY   = 303.7326

EPHEMERIS_TYPE = 0
CLASSIFICATION_TYPE = U
NORAD_CAT_ID   = 13154
ELEMENT_SET_NO = 999
REV_AT_EPOCH   = 37738
BSTAR          = .15826E-3
MEAN_MOTION_DOT = .2616E-4
MEAN_MOTION_DDOT = 0

