ATLAS CENTAUR R/B       
1 06155U 72065B   26040.31480223  .00001569  00000+0  21723-3 0  9990
2 06155  35.0012 112.0279 0033196 132.0293 228.3241 14.77603317837069
SL-8 R/B                
1 08459U 75112B   26040.47051739  .00000213  00000+0  78755-4 0  9991
2 08459  74.0591  70.8261 0015373 174.0587 186.0752 14.38189507627818
SL-3 R/B                
1 10114U 77057B   26040.48172340  .00013916  00000+0  30000-3 0  9999
2 10114  97.5734 211.1862 0007968  32.9331 327.2412 15.44671174663978
SEASAT 1                
1 10967U 78064A   26040.48114370  .00000363  00000+0  13995-3 0  9999
2 10967 108.0162  66.3003 0001625 291.6890  68.4083 14.46137456502434
SL-14 R/B               
1 11267U 79011B   26040.27660214  .00000775  00000+0  74048-4 0  9990
2 11267  82.5252 123.5305 0016873 148.0085 212.2163 14.91873299524543
SL-8 R/B                
1 11574U 79089B   26040.44670954  .00000348  00000+0  11308-3 0  9992
2 11574  74.0698 143.3229 0016601 319.4774  40.5145 14.42333128432039
SL-14 R/B               
1 11672U 80005B   26040.27096048  .00000866  00000+0  85246-4 0  9996
2 11672  82.5175 334.1850 0014129 257.3846 102.5793 14.90892686472253
SL-8 R/B                
1 12139U 81003B   26040.24822397  .00019549  00000+0  51805-3 0  9996
2 12139  82.9390 316.3003 0263215 277.9687  79.1751 15.09943655310382
SL-3 R/B                
1 12465U 81046B   26040.41931671  .00014170  00000+0  33794-3 0  9992
2 12465  81.2340 323.6633 0020721 114.7831 245.5571 15.41199338434072
SL-3 R/B                
1 12904U 81103B   26040.48764021  .00005441  00000+0  24347-3 0  9999
2 12904  81.1565 246.5124 0013706  24.1053 336.0816 15.21033065968949
SL-3 R/B                
1 13068U 82013B   26040.50783556  .00006077  00000+0  26579-3 0  9994
2 13068  81.1742 193.7877 0021679 275.2101  84.6656 15.21700063400068
SL-3 R/B                
1 13154U 82039B   26040.49395302  .00002616  00000+0  15826-3 0  9992
2 13154  81.1611 248.4617 0030082  56.6773 303.7326 15.09923705377386
